LANDSAT 9               
1 49260U 21088A   23217.12382691  .00000571  00000+0  13690-3 0  9991
2 49260  98.2274 286.4241 0001317 107.7124 252.4218 14.57102776 98513
